{
  "type": "FeatureCollection",
  "features": [
    {
      "type": "Feature",
      "properties": {
        "norad_id": 32099,
        "name": "FENGYUN 1C DEB",
        "group": "fengyun-1c-debris",
        "lat": -19.015105522368916,
        "lon": 148.2977273080535,
        "alt_km": 723.6237292668311,
        "timestamp": "2025-12-26T19:22:39.192200+00:00",
        "meta_object_name": "FENGYUN 1C DEB",
        "meta_object_id": "1999-025CQR",
        "meta_epoch": "2025-12-13T04:24:17.454240",
        "meta_mean_motion": 13.91775545,
        "meta_eccentricity": 0.03428827,
        "meta_inclination": 98.2819,
        "meta_ra_of_asc_node": 318.9761,
        "meta_arg_of_pericenter": 273.8166,
        "meta_mean_anomaly": 102.561,
        "meta_ephemeris_type": 0,
        "meta_classification_type": "U",
        "meta_norad_cat_id": 32099,
        "meta_element_set_no": 999,
        "meta_rev_at_epoch": 64694,
        "meta_bstar": 0.0015539286,
        "meta_mean_motion_dot": 3.154e-05,
        "meta_mean_motion_ddot": 0,
        "tle_line1": "1 32099U 99025CQR 25347.18353535  .00003154  00000+0  15539-2 0  9999",
        "tle_line2": "2 32099  98.2819 318.9761 0342882 273.8166 102.5610 13.91775545646948"
      },
      "geometry": {
        "type": "Point",
        "coordinates": [
          148.2977273080535,
          -19.015105522368916
        ]
      }
    },
    {
      "type": "Feature",
      "properties": {
        "norad_id": 32101,
        "name": "FENGYUN 1C DEB",
        "group": "fengyun-1c-debris",
        "lat": 63.92542610277813,
        "lon": -119.24073169923594,
        "alt_km": 941.5506016710924,
        "timestamp": "2025-12-26T19:22:39.192210+00:00",
        "meta_object_name": "FENGYUN 1C DEB",
        "meta_object_id": "1999-025CQT",
        "meta_epoch": "2025-12-23T00:15:46.694304",
        "meta_mean_motion": 14.01707747,
        "meta_eccentricity": 0.0119878,
        "meta_inclination": 99.0338,
        "meta_ra_of_asc_node": 255.9717,
        "meta_arg_of_pericenter": 210.0418,
        "meta_mean_anomaly": 149.3833,
        "meta_ephemeris_type": 0,
        "meta_classification_type": "U",
        "meta_norad_cat_id": 32101,
        "meta_element_set_no": 999,
        "meta_rev_at_epoch": 93326,
        "meta_bstar": 0.0018843239,
        "meta_mean_motion_dot": 3e-05,
        "meta_mean_motion_ddot": 0,
        "tle_line1": "1 32101U 99025CQT 25357.01095711  .00003000  00000+0  18843-2 0  9996",
        "tle_line2": "2 32101  99.0338 255.9717 0119878 210.0418 149.3833 14.01707747933269"
      },
      "geometry": {
        "type": "Point",
        "coordinates": [
          -119.24073169923594,
          63.92542610277813
        ]
      }
    },
    {
      "type": "Feature",
      "properties": {
        "norad_id": 32105,
        "name": "FENGYUN 1C DEB",
        "group": "fengyun-1c-debris",
        "lat": 20.00493769422595,
        "lon": -178.10946489443984,
        "alt_km": 1215.4552651734748,
        "timestamp": "2025-12-26T19:22:39.192221+00:00",
        "meta_object_name": "FENGYUN 1C DEB",
        "meta_object_id": "1999-025CQX",
        "meta_epoch": "2025-12-25T19:20:05.450496",
        "meta_mean_motion": 13.40328761,
        "meta_eccentricity": 0.03952631,
        "meta_inclination": 103.4646,
        "meta_ra_of_asc_node": 355.5577,
        "meta_arg_of_pericenter": 47.9513,
        "meta_mean_anomaly": 315.4535,
        "meta_ephemeris_type": 0,
        "meta_classification_type": "U",
        "meta_norad_cat_id": 32105,
        "meta_element_set_no": 999,
        "meta_rev_at_epoch": 59886,
        "meta_bstar": 0.003021239,
        "meta_mean_motion_dot": 2.546e-05,
        "meta_mean_motion_ddot": 0,
        "tle_line1": "1 32105U 99025CQX 25359.80561864  .00002546  00000+0  30212-2 0  9994",
        "tle_line2": "2 32105 103.4646 355.5577 0395263  47.9513 315.4535 13.40328761598868"
      },
      "geometry": {
        "type": "Point",
        "coordinates": [
          -178.10946489443984,
          20.00493769422595
        ]
      }
    },
    {
      "type": "Feature",
      "properties": {
        "norad_id": 32106,
        "name": "FENGYUN 1C DEB",
        "group": "fengyun-1c-debris",
        "lat": 21.165010519502612,
        "lon": 161.0244689047266,
        "alt_km": 870.9101745211383,
        "timestamp": "2025-12-26T19:22:39.192231+00:00",
        "meta_object_name": "FENGYUN 1C DEB",
        "meta_object_id": "1999-025CQY",
        "meta_epoch": "2025-12-23T16:36:55.662624",
        "meta_mean_motion": 14.27206286,
        "meta_eccentricity": 0.01104757,
        "meta_inclination": 101.4633,
        "meta_ra_of_asc_node": 332.4461,
        "meta_arg_of_pericenter": 13.7084,
        "meta_mean_anomaly": 346.7045,
        "meta_ephemeris_type": 0,
        "meta_classification_type": "U",
        "meta_norad_cat_id": 32106,
        "meta_element_set_no": 999,
        "meta_rev_at_epoch": 69548,
        "meta_bstar": 0.0041517084,
        "meta_mean_motion_dot": 0.00010773,
        "meta_mean_motion_ddot": 0,
        "tle_line1": "1 32106U 99025CQY 25357.69231091  .00010773  00000+0  41517-2 0  9997",
        "tle_line2": "2 32106 101.4633 332.4461 0110475  13.7084 346.7045 14.27206286695485"
      },
      "geometry": {
        "type": "Point",
        "coordinates": [
          161.0244689047266,
          21.165010519502612
        ]
      }
    },
    {
      "type": "Feature",
      "properties": {
        "norad_id": 32109,
        "name": "FENGYUN 1C DEB",
        "group": "fengyun-1c-debris",
        "lat": -67.34333801259866,
        "lon": -99.45773955539642,
        "alt_km": 648.054556697939,
        "timestamp": "2025-12-26T19:22:39.192244+00:00",
        "meta_object_name": "FENGYUN 1C DEB",
        "meta_object_id": "1999-025CRB",
        "meta_epoch": "2025-12-22T21:54:44.575488",
        "meta_mean_motion": 14.33976388,
        "meta_eccentricity": 0.0205156,
        "meta_inclination": 98.359,
        "meta_ra_of_asc_node": 236.1509,
        "meta_arg_of_pericenter": 281.9409,
        "meta_mean_anomaly": 75.8843,
        "meta_ephemeris_type": 0,
        "meta_classification_type": "U",
        "meta_norad_cat_id": 32109,
        "meta_element_set_no": 999,
        "meta_rev_at_epoch": 65034,
        "meta_bstar": 0.00054652989,
        "meta_mean_motion_dot": 1.881e-05,
        "meta_mean_motion_ddot": 0,
        "tle_line1": "1 32109U 99025CRB 25356.91301592  .00001881  00000+0  54653-3 0  9994",
        "tle_line2": "2 32109  98.3590 236.1509 0205156 281.9409  75.8843 14.33976388650344"
      },
      "geometry": {
        "type": "Point",
        "coordinates": [
          -99.45773955539642,
          -67.34333801259866
        ]
      }
    },
    {
      "type": "Feature",
      "properties": {
        "norad_id": 32110,
        "name": "FENGYUN 1C DEB",
        "group": "fengyun-1c-debris",
        "lat": 59.50868669364021,
        "lon": 154.72046530837818,
        "alt_km": 791.0949131698007,
        "timestamp": "2025-12-26T19:22:39.192255+00:00",
        "meta_object_name": "FENGYUN 1C DEB",
        "meta_object_id": "1999-025CRC",
        "meta_epoch": "2025-12-22T23:22:37.139808",
        "meta_mean_motion": 14.28961563,
        "meta_eccentricity": 0.00335496,
        "meta_inclination": 99.5437,
        "meta_ra_of_asc_node": 167.13,
        "meta_arg_of_pericenter": 337.3668,
        "meta_mean_anomaly": 174.1359,
        "meta_ephemeris_type": 0,
        "meta_classification_type": "U",
        "meta_norad_cat_id": 32110,
        "meta_element_set_no": 999,
        "meta_rev_at_epoch": 64534,
        "meta_bstar": 0.0014667226,
        "meta_mean_motion_dot": 3.68e-05,
        "meta_mean_motion_ddot": 0,
        "tle_line1": "1 32110U 99025CRC 25356.97404097  .00003680  00000+0  14667-2 0  9995",
        "tle_line2": "2 32110  99.5437 167.1300 0033549 337.3668 174.1359 14.28961563645341"
      },
      "geometry": {
        "type": "Point",
        "coordinates": [
          154.72046530837818,
          59.50868669364021
        ]
      }
    },
    {
      "type": "Feature",
      "properties": {
        "norad_id": 32111,
        "name": "FENGYUN 1C DEB",
        "group": "fengyun-1c-debris",
        "lat": -12.251492898387625,
        "lon": 178.3055568860725,
        "alt_km": 715.3151442740591,
        "timestamp": "2025-12-26T19:22:39.192265+00:00",
        "meta_object_name": "FENGYUN 1C DEB",
        "meta_object_id": "1999-025CRD",
        "meta_epoch": "2025-12-24T11:50:11.297184",
        "meta_mean_motion": 14.3155842,
        "meta_eccentricity": 0.01203266,
        "meta_inclination": 98.4437,
        "meta_ra_of_asc_node": 357.903,
        "meta_arg_of_pericenter": 170.0242,
        "meta_mean_anomaly": 341.8723,
        "meta_ephemeris_type": 0,
        "meta_classification_type": "U",
        "meta_norad_cat_id": 32111,
        "meta_element_set_no": 999,
        "meta_rev_at_epoch": 96199,
        "meta_bstar": 0.00017348243,
        "meta_mean_motion_dot": 4.56e-06,
        "meta_mean_motion_ddot": 0,
        "tle_line1": "1 32111U 99025CRD 25358.49318631  .00000456  00000+0  17348-3 0  9991",
        "tle_line2": "2 32111  98.4437 357.9030 0120326 170.0242 341.8723 14.31558420961997"
      },
      "geometry": {
        "type": "Point",
        "coordinates": [
          178.3055568860725,
          -12.251492898387625
        ]
      }
    }
  ]
}